{"fetched_at":"2026-03-29T16:36:15Z","count":15609,"tles":[{"name":"STARLINK-36177","line1":"1 66932U 25286H   26087.84041181  .00026778  00000+0  91269-3 0  9998","line2":"2 66932  53.1591 269.8665 0001211  72.9132 287.2002 15.30210392 18346","category":"Starlink"}]}