{
  "norad_id": 66932,
  "name": "STARLINK-36177",
  "history": [
    {
      "epoch": "2026-03-28T20:10:11.580384Z",
      "apogee_km": 476.0139781341568,
      "perigee_km": 474.3541037780369,
      "latitude_deg": 5.6818222492017415e-05,
      "longitude_deg": 141.06320715149928,
      "height_km": 475.8383206786209,
      "semi_major_axis_km": 6853.321040956096,
      "eccentricity": 0.0001211,
      "inclination_deg": 53.1591,
      "raan_deg": 269.8665,
      "arg_perigee_deg": 72.9132,
      "mean_anomaly_deg": 287.2002,
      "mean_motion_rev_day": 15.30210392
    }
  ]
}